start=new Date('2022-12-09T00:00:00.000Z').valueOf();
sats=[{"MEAN_MOTION_DOT":"0.00001803","REF_FRAME":"TEME","GP_ID":"219807291","INCLINATION":"53.0545","COUNTRY_CODE":"US","SEMIMAJOR_AXIS":"6925.316","PERIOD":"95.591","RA_OF_ASC_NODE":"290.8850","MEAN_ELEMENT_THEORY":"SGP4","CENTER_NAME":"EARTH","EPHEMERIS_TYPE":"0","LAUNCH_DATE":"2021-02-04","OBJECT_TYPE":"PAYLOAD","NORAD_CAT_ID":"47601","EPOCH":"2022-12-08T13:16:02.473824","PERIAPSIS":"546.062","MEAN_ANOMALY":"304.6706","BSTAR":"0.00013989000000","TLE_LINE2":"2 47601  53.0545 290.8850 0001617  55.4435 304.6706 15.06410464102140","RCS_SIZE":"LARGE","ARG_OF_PERICENTER":"55.4435","APOAPSIS":"548.301","TIME_SYSTEM":"UTC","REV_AT_EPOCH":"10214","CLASSIFICATION_TYPE":"U","DECAY_DATE":null,"MEAN_MOTION":"15.06410464","TLE_LINE1":"1 47601U 21009BF  22342.55280641  .00001803  00000-0  13989-3 0  9999","FILE":"3684925","ECCENTRICITY":"0.00016170","ELEMENT_SET_NO":"999","OBJECT_NAME":"STARLINK-2006","OBJECT_ID":"2021-009BF","MEAN_MOTION_DDOT":"0.0000000000000","SITE":"AFETR"},{"MEAN_MOTION_DOT":"0.00001027","REF_FRAME":"TEME","GP_ID":"219783828","INCLINATION":"53.0555","COUNTRY_CODE":"US","SEMIMAJOR_AXIS":"6925.320","RA_OF_ASC_NODE":"301.9906","PERIOD":"95.592","MEAN_ELEMENT_THEORY":"SGP4","CENTER_NAME":"EARTH","EPHEMERIS_TYPE":"0","LAUNCH_DATE":"2021-02-04","NORAD_CAT_ID":"47602","OBJECT_TYPE":"PAYLOAD","PERIAPSIS":"545.944","EPOCH":"2022-12-08T07:24:24.469920","MEAN_ANOMALY":"298.7466","BSTAR":"0.00008779800000","TLE_LINE2":"2 47602  53.0555 301.9906 0001792  61.3703 298.7466 15.06409389102562","RCS_SIZE":"LARGE","ARG_OF_PERICENTER":"61.3703","APOAPSIS":"548.426","TIME_SYSTEM":"UTC","REV_AT_EPOCH":"10256","DECAY_DATE":null,"CLASSIFICATION_TYPE":"U","MEAN_MOTION":"15.06409389","TLE_LINE1":"1 47602U 21009BG  22342.30861655  .00001027  00000-0  87798-4 0  9991","FILE":"3684820","ECCENTRICITY":"0.00017920","ELEMENT_SET_NO":"999","OBJECT_NAME":"STARLINK-2007","OBJECT_ID":"2021-009BG","MEAN_MOTION_DDOT":"0.0000000000000","SITE":"AFETR"},{"OBJECT_ID":"2021-009BH","MEAN_MOTION_DDOT":"0.0000000000000","SITE":"AFETR","FILE":"3684820","ECCENTRICITY":"0.00015120","ELEMENT_SET_NO":"999","OBJECT_NAME":"STARLINK-2008","REV_AT_EPOCH":"10216","DECAY_DATE":null,"MEAN_MOTION":"15.06412220","CLASSIFICATION_TYPE":"U","TLE_LINE1":"1 47603U 21009BH  22342.45329174  .00003593  00000-0  25988-3 0  9995","BSTAR":"0.00025988000000","RCS_SIZE":"LARGE","TLE_LINE2":"2 47603  53.0550 331.3375 0001512  46.6631 313.4484 15.06412220102160","ARG_OF_PERICENTER":"46.6631","APOAPSIS":"548.223","TIME_SYSTEM":"UTC","EPHEMERIS_TYPE":"0","LAUNCH_DATE":"2021-02-04","NORAD_CAT_ID":"47603","OBJECT_TYPE":"PAYLOAD","EPOCH":"2022-12-08T10:52:44.406336","PERIAPSIS":"546.129","MEAN_ANOMALY":"313.4484","INCLINATION":"53.0550","SEMIMAJOR_AXIS":"6925.311","COUNTRY_CODE":"US","PERIOD":"95.591","RA_OF_ASC_NODE":"331.3375","MEAN_ELEMENT_THEORY":"SGP4","CENTER_NAME":"EARTH","GP_ID":"219784190","MEAN_MOTION_DOT":"0.00003593","REF_FRAME":"TEME"},{"FILE":"3684614","ECCENTRICITY":"0.00017320","ELEMENT_SET_NO":"999","OBJECT_NAME":"STARLINK-2021","OBJECT_ID":"2021-009BJ","MEAN_MOTION_DDOT":"0.0000000000000","SITE":"AFETR","BSTAR":"0.00043958000000","TLE_LINE2":"2 47604  53.0539 300.7630 0001732  53.2528 306.8620 15.06411184102015","RCS_SIZE":"LARGE","ARG_OF_PERICENTER":"53.2528","APOAPSIS":"548.379","TIME_SYSTEM":"UTC","REV_AT_EPOCH":"10201","MEAN_MOTION":"15.06411184","DECAY_DATE":null,"CLASSIFICATION_TYPE":"U","TLE_LINE1":"1 47604U 21009BJ  22342.58138018  .00006274  00000-0  43958-3 0  9991","INCLINATION":"53.0539","SEMIMAJOR_AXIS":"6925.314","COUNTRY_CODE":"US","RA_OF_ASC_NODE":"300.7630","PERIOD":"95.591","MEAN_ELEMENT_THEORY":"SGP4","CENTER_NAME":"EARTH","EPHEMERIS_TYPE":"0","LAUNCH_DATE":"2021-02-04","OBJECT_TYPE":"PAYLOAD","NORAD_CAT_ID":"47604","MEAN_ANOMALY":"306.8620","PERIAPSIS":"545.980","EPOCH":"2022-12-08T13:57:11.247552","MEAN_MOTION_DOT":"0.00006274","REF_FRAME":"TEME","GP_ID":"219773857"},{"OBJECT_TYPE":"PAYLOAD","NORAD_CAT_ID":"47606","EPHEMERIS_TYPE":"0","LAUNCH_DATE":"2021-02-04","PERIAPSIS":"545.984","EPOCH":"2022-12-08T14:02:30.139584","MEAN_ANOMALY":"300.7557","PERIOD":"95.592","RA_OF_ASC_NODE":"300.7421","MEAN_ELEMENT_THEORY":"SGP4","INCLINATION":"53.0544","SEMIMAJOR_AXIS":"6925.325","COUNTRY_CODE":"US","CENTER_NAME":"EARTH","GP_ID":"219784209","MEAN_MOTION_DOT":"0.00005781","REF_FRAME":"TEME","MEAN_MOTION_DDOT":"0.0000000000000","OBJECT_ID":"2021-009BL","SITE":"AFETR","FILE":"3684821","OBJECT_NAME":"STARLINK-2024","ECCENTRICITY":"0.00017420","ELEMENT_SET_NO":"999","DECAY_DATE":null,"CLASSIFICATION_TYPE":"U","MEAN_MOTION":"15.06407610","REV_AT_EPOCH":"10261","TLE_LINE1":"1 47606U 21009BL  22342.58507106  .00005781  00000-0  40659-3 0  9998","RCS_SIZE":"LARGE","TLE_LINE2":"2 47606  53.0544 300.7421 0001742  59.3603 300.7557 15.06407610102610","BSTAR":"0.00040659000000","TIME_SYSTEM":"UTC","ARG_OF_PERICENTER":"59.3603","APOAPSIS":"548.397"},{"DECAY_DATE":null,"MEAN_MOTION":"15.06407069","CLASSIFICATION_TYPE":"U","REV_AT_EPOCH":"10201","TLE_LINE1":"1 47607U 21009BM  22342.62928967  .00003152  00000-0  23039-3 0  9999","RCS_SIZE":"LARGE","TLE_LINE2":"2 47607  53.0568 300.5525 0001632  54.3536 305.7605 15.06407069102019","BSTAR":"0.00023039000000","TIME_SYSTEM":"UTC","ARG_OF_PERICENTER":"54.3536","APOAPSIS":"548.322","MEAN_MOTION_DDOT":"0.0000000000000","OBJECT_ID":"2021-009BM","SITE":"AFETR","FILE":"3684925","OBJECT_NAME":"STARLINK-2025","ECCENTRICITY":"0.00016320","ELEMENT_SET_NO":"999","GP_ID":"219807542","MEAN_MOTION_DOT":"0.00003152","REF_FRAME":"TEME","NORAD_CAT_ID":"47607","OBJECT_TYPE":"PAYLOAD","EPHEMERIS_TYPE":"0","LAUNCH_DATE":"2021-02-04","EPOCH":"2022-12-08T15:06:10.627488","PERIAPSIS":"546.062","MEAN_ANOMALY":"305.7605","PERIOD":"95.592","RA_OF_ASC_NODE":"300.5525","MEAN_ELEMENT_THEORY":"SGP4","INCLINATION":"53.0568","COUNTRY_CODE":"US","SEMIMAJOR_AXIS":"6925.327","CENTER_NAME":"EARTH"},{"GP_ID":"219779881","MEAN_MOTION_DOT":"0.00002549","REF_FRAME":"TEME","OBJECT_TYPE":"PAYLOAD","NORAD_CAT_ID":"47620","LAUNCH_DATE":"2021-02-16","EPHEMERIS_TYPE":"0","MEAN_ANOMALY":"308.2663","PERIAPSIS":"545.753","EPOCH":"2022-12-08T18:41:09.076128","MEAN_ELEMENT_THEORY":"SGP4","PERIOD":"95.592","RA_OF_ASC_NODE":"359.8735","SEMIMAJOR_AXIS":"6925.346","COUNTRY_CODE":"US","INCLINATION":"53.0568","CENTER_NAME":"EARTH","DECAY_DATE":null,"CLASSIFICATION_TYPE":"U","MEAN_MOTION":"15.06400722","REV_AT_EPOCH":"10057","TLE_LINE1":"1 47620U 21012A   22342.77857727  .00002549  00000-0  18996-3 0  9994","TLE_LINE2":"2 47620  53.0568 359.8735 0002106  51.8516 308.2663 15.06400722100571","RCS_SIZE":"LARGE","BSTAR":"0.00018996000000","TIME_SYSTEM":"UTC","APOAPSIS":"548.670","ARG_OF_PERICENTER":"51.8516","MEAN_MOTION_DDOT":"0.0000000000000","OBJECT_ID":"2021-012A","SITE":"AFETR","FILE":"3684658","OBJECT_NAME":"STARLINK-1528","ELEMENT_SET_NO":"999","ECCENTRICITY":"0.00021060"},{"GP_ID":"219782059","REF_FRAME":"TEME","MEAN_MOTION_DOT":"0.00014660","EPOCH":"2022-12-08T18:30:32.662368","PERIAPSIS":"545.781","MEAN_ANOMALY":"301.5888","LAUNCH_DATE":"2021-02-16","EPHEMERIS_TYPE":"0","OBJECT_TYPE":"PAYLOAD","NORAD_CAT_ID":"47621","CENTER_NAME":"EARTH","COUNTRY_CODE":"US","SEMIMAJOR_AXIS":"6925.287","INCLINATION":"53.0542","MEAN_ELEMENT_THEORY":"SGP4","PERIOD":"95.591","RA_OF_ASC_NODE":"359.8959","TLE_LINE1":"1 47621U 21012B   22342.77121137  .00014660  00000-0  10005-2 0  9993","REV_AT_EPOCH":"10057","CLASSIFICATION_TYPE":"U","DECAY_DATE":null,"MEAN_MOTION":"15.06420098","APOAPSIS":"548.523","ARG_OF_PERICENTER":"58.5294","TIME_SYSTEM":"UTC","BSTAR":"0.00100050000000","TLE_LINE2":"2 47621  53.0542 359.8959 0001980  58.5294 301.5888 15.06420098100571","RCS_SIZE":"LARGE","SITE":"AFETR","OBJECT_ID":"2021-012B","MEAN_MOTION_DDOT":"0.0000000000000","ELEMENT_SET_NO":"999","ECCENTRICITY":"0.00019800","OBJECT_NAME":"STARLINK-1609","FILE":"3684755"},{"EPOCH":"2022-12-08T18:23:50.946432","PERIAPSIS":"546.066","MEAN_ANOMALY":"313.0355","LAUNCH_DATE":"2021-02-16","EPHEMERIS_TYPE":"0","OBJECT_TYPE":"PAYLOAD","NORAD_CAT_ID":"47622","CENTER_NAME":"EARTH","COUNTRY_CODE":"US","SEMIMAJOR_AXIS":"6925.309","INCLINATION":"53.0559","MEAN_ELEMENT_THEORY":"SGP4","PERIOD":"95.591","RA_OF_ASC_NODE":"359.9240","GP_ID":"219782060","REF_FRAME":"TEME","MEAN_MOTION_DOT":"0.00002423","SITE":"AFETR","OBJECT_ID":"2021-012C","MEAN_MOTION_DDOT":"0.0000000000000","ELEMENT_SET_NO":"999","ECCENTRICITY":"0.00016000","OBJECT_NAME":"STARLINK-1645","FILE":"3684755","TLE_LINE1":"1 47622U 21012C   22342.76656188  .00002423  00000-0  18143-3 0  9998","REV_AT_EPOCH":"10057","CLASSIFICATION_TYPE":"U","DECAY_DATE":null,"MEAN_MOTION":"15.06412805","APOAPSIS":"548.282","ARG_OF_PERICENTER":"47.0768","TIME_SYSTEM":"UTC","BSTAR":"0.00018143000000","RCS_SIZE":"LARGE","TLE_LINE2":"2 47622  53.0559 359.9240 0001600  47.0768 313.0355 15.06412805100576"},{"ELEMENT_SET_NO":"999","ECCENTRICITY":"0.00012950","OBJECT_NAME":"STARLINK-1655","FILE":"3684925","SITE":"AFETR","OBJECT_ID":"2021-012D","MEAN_MOTION_DDOT":"0.0000000000000","APOAPSIS":"548.072","ARG_OF_PERICENTER":"63.4863","TIME_SYSTEM":"UTC","BSTAR":"0.00035239000000","TLE_LINE2":"2 47623  53.0558 295.7761 0001295  63.4863 296.6258 15.06412453101971","RCS_SIZE":"LARGE","TLE_LINE1":"1 47623U 21012D   22342.57999353  .00004973  00000-0  35239-3 0  9999","REV_AT_EPOCH":"10197","CLASSIFICATION_TYPE":"U","DECAY_DATE":null,"MEAN_MOTION":"15.06412453","CENTER_NAME":"EARTH","SEMIMAJOR_AXIS":"6925.310","COUNTRY_CODE":"US","INCLINATION":"53.0558","MEAN_ELEMENT_THEORY":"SGP4","RA_OF_ASC_NODE":"295.7761","PERIOD":"95.591","MEAN_ANOMALY":"296.6258","PERIAPSIS":"546.279","EPOCH":"2022-12-08T13:55:11.440992","LAUNCH_DATE":"2021-02-16","EPHEMERIS_TYPE":"0","NORAD_CAT_ID":"47623","OBJECT_TYPE":"PAYLOAD","REF_FRAME":"TEME","MEAN_MOTION_DOT":"0.00004973","GP_ID":"219807794"}];
